STARLINK-34650          
1 66258U 25245AA  25332.19820001  .00129844  00000+0  23000-2 0  9995
2 66258  53.1603  37.7250 0001195  89.9757 270.1389 15.49359248  5681
STARLINK-35529          
1 66259U 25245AB  25332.00002315 -.00041481  00000+0 -74166-3 0  9998
2 66259  53.1603  38.6559 0001214  96.6737 245.1611 15.49311027  5738
STARLINK-35420          
1 66260U 25245AC  25332.19716957  .00112338  00000+0  19956-2 0  9997
2 66260  53.1609  37.7200 0001302  78.6951 281.4204 15.49357426  5683
STARLINK-35536          
1 66261U 25245AD  25332.00002315 -.00036311  00000+0 -64785-3 0  9993
2 66261  53.1603  38.6521 0001240 103.1341 240.6196 15.49308045  5738
STARLINK-35487          
1 66262U 25245AE  25331.80909271  .00097789  00000+0  17429-2 0  9994
2 66262  53.1613  39.5622 0001340  65.4469 294.6680 15.49332941  5575
STARLINK-35801          
1 66265U 25247A   25332.10284759  .00037963  00000+0  95478-3 0  9999
2 66265  53.1594 306.6165 0001310  94.3009 265.8146 15.39605538  5430
STARLINK-35056          
1 66266U 25247B   25332.10250582  .00045741  00000+0  11452-2 0  9999
2 66266  53.1600 306.6136 0001436  99.7055 260.4113 15.39659149  5438
STARLINK-35550          
1 66267U 25247C   25332.16671295  .00020725  00000+0  52717-3 0  9999
2 66267  53.1590 304.8912 0001435  87.6068 243.9280 15.39592863  5225
STARLINK-35069          
1 66268U 25247D   25332.16311448  .00059963  00000+0  14966-2 0  9990
2 66268  53.1597 306.2794 0001322  95.1342 264.9814 15.39634846  5449
STARLINK-34910          
1 66269U 25247E   25332.16671295 -.00206536  00000+0 -52794-2 0  9993
2 66269  53.1591 304.8951 0001404  93.5619 236.1283 15.39705328  5549
STARLINK-35757          
1 66270U 25247F   25332.09786477  .00035477  00000+0  89252-3 0  9998
2 66270  53.1596 306.5837 0001578 100.7009 259.4174 15.39628617  5489
STARLINK-35745          
1 66271U 25247G   25332.15847247  .00057000  00000+0  14237-2 0  9995
2 66271  53.1598 306.2501 0001394  92.8691 267.2474 15.39633454  5497
