CCSDS_OMM_VERS = 2.0
CREATION_DATE  = 
ORIGINATOR     = 

OBJECT_NAME    = STARLINK-34650
OBJECT_ID      = 2025-245AA
CENTER_NAME    = EARTH
REF_FRAME      = TEME
TIME_SYSTEM    = UTC
MEAN_ELEMENT_THEORY = SGP/SGP4

EPOCH          = 2025-11-28T04:45:24.480864
MEAN_MOTION    = 15.49359248
ECCENTRICITY   = .0001195
INCLINATION    = 53.1603
RA_OF_ASC_NODE = 37.7250
ARG_OF_PERICENTER = 89.9757
MEAN_ANOMALY   = 270.1389

EPHEMERIS_TYPE = 0
CLASSIFICATION_TYPE = U
NORAD_CAT_ID   = 66258
ELEMENT_SET_NO = 999
REV_AT_EPOCH   = 568
BSTAR          = .23E-2
MEAN_MOTION_DOT = .129844E-2
MEAN_MOTION_DDOT = 0

CCSDS_OMM_VERS = 2.0
CREATION_DATE  = 
ORIGINATOR     = 

OBJECT_NAME    = STARLINK-35529
OBJECT_ID      = 2025-245AB
CENTER_NAME    = EARTH
REF_FRAME      = TEME
TIME_SYSTEM    = UTC
MEAN_ELEMENT_THEORY = SGP/SGP4

EPOCH          = 2025-11-28T00:00:02.000160
MEAN_MOTION    = 15.49311027
ECCENTRICITY   = .0001214
INCLINATION    = 53.1603
RA_OF_ASC_NODE = 38.6559
ARG_OF_PERICENTER = 96.6737
MEAN_ANOMALY   = 245.1611

EPHEMERIS_TYPE = 0
CLASSIFICATION_TYPE = U
NORAD_CAT_ID   = 66259
ELEMENT_SET_NO = 999
REV_AT_EPOCH   = 573
BSTAR          = -.74166E-3
MEAN_MOTION_DOT = -.41481E-3
MEAN_MOTION_DDOT = 0

CCSDS_OMM_VERS = 2.0
CREATION_DATE  = 
ORIGINATOR     = 

OBJECT_NAME    = STARLINK-35420
OBJECT_ID      = 2025-245AC
CENTER_NAME    = EARTH
REF_FRAME      = TEME
TIME_SYSTEM    = UTC
MEAN_ELEMENT_THEORY = SGP/SGP4

EPOCH          = 2025-11-28T04:43:55.450848
MEAN_MOTION    = 15.49357426
ECCENTRICITY   = .0001302
INCLINATION    = 53.1609
RA_OF_ASC_NODE = 37.7200
ARG_OF_PERICENTER = 78.6951
MEAN_ANOMALY   = 281.4204

EPHEMERIS_TYPE = 0
CLASSIFICATION_TYPE = U
NORAD_CAT_ID   = 66260
ELEMENT_SET_NO = 999
REV_AT_EPOCH   = 568
BSTAR          = .19956E-2
MEAN_MOTION_DOT = .112338E-2
MEAN_MOTION_DDOT = 0

CCSDS_OMM_VERS = 2.0
CREATION_DATE  = 
ORIGINATOR     = 

OBJECT_NAME    = STARLINK-35536
OBJECT_ID      = 2025-245AD
CENTER_NAME    = EARTH
REF_FRAME      = TEME
TIME_SYSTEM    = UTC
MEAN_ELEMENT_THEORY = SGP/SGP4

EPOCH          = 2025-11-28T00:00:02.000160
MEAN_MOTION    = 15.49308045
ECCENTRICITY   = .000124
INCLINATION    = 53.1603
RA_OF_ASC_NODE = 38.6521
ARG_OF_PERICENTER = 103.1341
MEAN_ANOMALY   = 240.6196

EPHEMERIS_TYPE = 0
CLASSIFICATION_TYPE = U
NORAD_CAT_ID   = 66261
ELEMENT_SET_NO = 999
REV_AT_EPOCH   = 573
BSTAR          = -.64785E-3
MEAN_MOTION_DOT = -.36311E-3
MEAN_MOTION_DDOT = 0

CCSDS_OMM_VERS = 2.0
CREATION_DATE  = 
ORIGINATOR     = 

OBJECT_NAME    = STARLINK-35487
OBJECT_ID      = 2025-245AE
CENTER_NAME    = EARTH
REF_FRAME      = TEME
TIME_SYSTEM    = UTC
MEAN_ELEMENT_THEORY = SGP/SGP4

EPOCH          = 2025-11-27T19:25:05.610144
MEAN_MOTION    = 15.49332941
ECCENTRICITY   = .000134
INCLINATION    = 53.1613
RA_OF_ASC_NODE = 39.5622
ARG_OF_PERICENTER = 65.4469
MEAN_ANOMALY   = 294.6680

EPHEMERIS_TYPE = 0
CLASSIFICATION_TYPE = U
NORAD_CAT_ID   = 66262
ELEMENT_SET_NO = 999
REV_AT_EPOCH   = 557
BSTAR          = .17428975E-2
MEAN_MOTION_DOT = .97789E-3
MEAN_MOTION_DDOT = 0

CCSDS_OMM_VERS = 2.0
CREATION_DATE  = 
ORIGINATOR     = 

OBJECT_NAME    = STARLINK-35801
OBJECT_ID      = 2025-247A
CENTER_NAME    = EARTH
REF_FRAME      = TEME
TIME_SYSTEM    = UTC
MEAN_ELEMENT_THEORY = SGP/SGP4

EPOCH          = 2025-11-28T02:28:06.031776
MEAN_MOTION    = 15.39605538
ECCENTRICITY   = .000131
INCLINATION    = 53.1594
RA_OF_ASC_NODE = 306.6165
ARG_OF_PERICENTER = 94.3009
MEAN_ANOMALY   = 265.8146

EPHEMERIS_TYPE = 0
CLASSIFICATION_TYPE = U
NORAD_CAT_ID   = 66265
ELEMENT_SET_NO = 999
REV_AT_EPOCH   = 543
BSTAR          = .95478E-3
MEAN_MOTION_DOT = .37963E-3
MEAN_MOTION_DDOT = 0

CCSDS_OMM_VERS = 2.0
CREATION_DATE  = 
ORIGINATOR     = 

OBJECT_NAME    = STARLINK-35056
OBJECT_ID      = 2025-247B
CENTER_NAME    = EARTH
REF_FRAME      = TEME
TIME_SYSTEM    = UTC
MEAN_ELEMENT_THEORY = SGP/SGP4

EPOCH          = 2025-11-28T02:27:36.502848
MEAN_MOTION    = 15.39659149
ECCENTRICITY   = .0001436
INCLINATION    = 53.1600
RA_OF_ASC_NODE = 306.6136
ARG_OF_PERICENTER = 99.7055
MEAN_ANOMALY   = 260.4113

EPHEMERIS_TYPE = 0
CLASSIFICATION_TYPE = U
NORAD_CAT_ID   = 66266
ELEMENT_SET_NO = 999
REV_AT_EPOCH   = 543
BSTAR          = .11452E-2
MEAN_MOTION_DOT = .45741E-3
MEAN_MOTION_DDOT = 0

CCSDS_OMM_VERS = 2.0
CREATION_DATE  = 
ORIGINATOR     = 

OBJECT_NAME    = STARLINK-35550
OBJECT_ID      = 2025-247C
CENTER_NAME    = EARTH
REF_FRAME      = TEME
TIME_SYSTEM    = UTC
MEAN_ELEMENT_THEORY = SGP/SGP4

EPOCH          = 2025-11-28T04:00:03.998880
MEAN_MOTION    = 15.39592863
ECCENTRICITY   = .0001435
INCLINATION    = 53.1590
RA_OF_ASC_NODE = 304.8912
ARG_OF_PERICENTER = 87.6068
MEAN_ANOMALY   = 243.9280

EPHEMERIS_TYPE = 0
CLASSIFICATION_TYPE = U
NORAD_CAT_ID   = 66267
ELEMENT_SET_NO = 999
REV_AT_EPOCH   = 522
BSTAR          = .52717E-3
MEAN_MOTION_DOT = .20725E-3
MEAN_MOTION_DDOT = 0

CCSDS_OMM_VERS = 2.0
CREATION_DATE  = 
ORIGINATOR     = 

OBJECT_NAME    = STARLINK-35069
OBJECT_ID      = 2025-247D
CENTER_NAME    = EARTH
REF_FRAME      = TEME
TIME_SYSTEM    = UTC
MEAN_ELEMENT_THEORY = SGP/SGP4

EPOCH          = 2025-11-28T03:54:53.091072
MEAN_MOTION    = 15.39634846
ECCENTRICITY   = .0001322
INCLINATION    = 53.1597
RA_OF_ASC_NODE = 306.2794
ARG_OF_PERICENTER = 95.1342
MEAN_ANOMALY   = 264.9814

EPHEMERIS_TYPE = 0
CLASSIFICATION_TYPE = U
NORAD_CAT_ID   = 66268
ELEMENT_SET_NO = 999
REV_AT_EPOCH   = 544
BSTAR          = .14966E-2
MEAN_MOTION_DOT = .59963E-3
MEAN_MOTION_DDOT = 0

CCSDS_OMM_VERS = 2.0
CREATION_DATE  = 
ORIGINATOR     = 

OBJECT_NAME    = STARLINK-34910
OBJECT_ID      = 2025-247E
CENTER_NAME    = EARTH
REF_FRAME      = TEME
TIME_SYSTEM    = UTC
MEAN_ELEMENT_THEORY = SGP/SGP4

EPOCH          = 2025-11-28T04:00:03.998880
MEAN_MOTION    = 15.39705328
ECCENTRICITY   = .0001404
INCLINATION    = 53.1591
RA_OF_ASC_NODE = 304.8951
ARG_OF_PERICENTER = 93.5619
MEAN_ANOMALY   = 236.1283

EPHEMERIS_TYPE = 0
CLASSIFICATION_TYPE = U
NORAD_CAT_ID   = 66269
ELEMENT_SET_NO = 999
REV_AT_EPOCH   = 554
BSTAR          = -.52794E-2
MEAN_MOTION_DOT = -.206536E-2
MEAN_MOTION_DDOT = 0

CCSDS_OMM_VERS = 2.0
CREATION_DATE  = 
ORIGINATOR     = 

OBJECT_NAME    = STARLINK-35757
OBJECT_ID      = 2025-247F
CENTER_NAME    = EARTH
REF_FRAME      = TEME
TIME_SYSTEM    = UTC
MEAN_ELEMENT_THEORY = SGP/SGP4

EPOCH          = 2025-11-28T02:20:55.516128
MEAN_MOTION    = 15.39628617
ECCENTRICITY   = .0001578
INCLINATION    = 53.1596
RA_OF_ASC_NODE = 306.5837
ARG_OF_PERICENTER = 100.7009
MEAN_ANOMALY   = 259.4174

EPHEMERIS_TYPE = 0
CLASSIFICATION_TYPE = U
NORAD_CAT_ID   = 66270
ELEMENT_SET_NO = 999
REV_AT_EPOCH   = 548
BSTAR          = .89252E-3
MEAN_MOTION_DOT = .35477E-3
MEAN_MOTION_DDOT = 0

CCSDS_OMM_VERS = 2.0
CREATION_DATE  = 
ORIGINATOR     = 

OBJECT_NAME    = STARLINK-35745
OBJECT_ID      = 2025-247G
CENTER_NAME    = EARTH
REF_FRAME      = TEME
TIME_SYSTEM    = UTC
MEAN_ELEMENT_THEORY = SGP/SGP4

EPOCH          = 2025-11-28T03:48:12.021408
MEAN_MOTION    = 15.39633454
ECCENTRICITY   = .0001394
INCLINATION    = 53.1598
RA_OF_ASC_NODE = 306.2501
ARG_OF_PERICENTER = 92.8691
MEAN_ANOMALY   = 267.2474

EPHEMERIS_TYPE = 0
CLASSIFICATION_TYPE = U
NORAD_CAT_ID   = 66271
ELEMENT_SET_NO = 999
REV_AT_EPOCH   = 549
BSTAR          = .14237E-2
MEAN_MOTION_DOT = .57E-3
MEAN_MOTION_DDOT = 0

